[{"OBJECT_NAME":"QUICK3","OBJECT_ID":"2025-135AG","EPOCH":"2026-03-09T21:40:49.946304","MEAN_MOTION":15.24606762,"ECCENTRICITY":0.00063908,"INCLINATION":97.4614,"RA_OF_ASC_NODE":185.4931,"ARG_OF_PERICENTER":144.4818,"MEAN_ANOMALY":215.6846,"EPHEMERIS_TYPE":0,"CLASSIFICATION_TYPE":"U","NORAD_CAT_ID":64558,"ELEMENT_SET_NO":999,"REV_AT_EPOCH":3971,"BSTAR":0.00070513701,"MEAN_MOTION_DOT":0.00017352,"MEAN_MOTION_DDOT":0},{"OBJECT_NAME":"STARLINK-36484","OBJECT_ID":"2026-005A","EPOCH":"2026-03-09T22:00:01.999584","MEAN_MOTION":15.28559164,"ECCENTRICITY":0.00020575,"INCLINATION":43.0009,"RA_OF_ASC_NODE":236.4215,"ARG_OF_PERICENTER":285.389,"MEAN_ANOMALY":107.322,"EPHEMERIS_TYPE":0,"CLASSIFICATION_TYPE":"U","NORAD_CAT_ID":67404,"ELEMENT_SET_NO":999,"REV_AT_EPOCH":575,"BSTAR":-0.051392169,"MEAN_MOTION_DOT":-0.01328663,"MEAN_MOTION_DDOT":0}]
